start=new Date('2022-03-10T00:00:00.000Z').valueOf();
sats=[{"GP_ID":"198359192","MEAN_ELEMENT_THEORY":"SGP4","CENTER_NAME":"EARTH","OBJECT_ID":"2021-017J","RCS_SIZE":"LARGE","FILE":"3352875","RA_OF_ASC_NODE":"294.3645","TLE_LINE1":"1 47730U 21017J   22068.90083460 -.00000547  00000-0 -17849-4 0  9991","ECCENTRICITY":"0.00019680","ELEMENT_SET_NO":"999","SITE":"AFETR","MEAN_MOTION_DOT":"-0.00000547","MEAN_MOTION":"15.06388563","TLE_LINE2":"2 47730  53.0551 294.3645 0001968  49.8021 310.3140 15.06388563 57484","INCLINATION":"53.0551","EPHEMERIS_TYPE":"0","MEAN_ANOMALY":"310.3140","SEMIMAJOR_AXIS":"6925.384","DECAY_DATE":null,"PERIOD":"95.593","OBJECT_NAME":"STARLINK-2140","OBJECT_TYPE":"PAYLOAD","APOAPSIS":"548.612","LAUNCH_DATE":"2021-03-04","BSTAR":"-0.00001784900000","REV_AT_EPOCH":"5748","PERIAPSIS":"545.886","EPOCH":"2022-03-09T21:37:12.109440","COUNTRY_CODE":"US","REF_FRAME":"TEME","MEAN_MOTION_DDOT":"0.0000000000000","TIME_SYSTEM":"UTC","ARG_OF_PERICENTER":"49.8021","NORAD_CAT_ID":"47730","CLASSIFICATION_TYPE":"U"},{"ELEMENT_SET_NO":"999","RA_OF_ASC_NODE":"289.3341","TLE_LINE1":"1 47731U 21017K   22068.90778339  .00002536  00000-0  18916-3 0  9991","ECCENTRICITY":"0.00015100","FILE":"3352875","RCS_SIZE":"LARGE","CENTER_NAME":"EARTH","GP_ID":"198359442","MEAN_ELEMENT_THEORY":"SGP4","OBJECT_ID":"2021-017K","TLE_LINE2":"2 47731  53.0527 289.3341 0001510  55.9927 304.1205 15.06384282 57567","MEAN_MOTION":"15.06384282","MEAN_MOTION_DOT":"0.00002536","SITE":"AFETR","LAUNCH_DATE":"2021-03-04","APOAPSIS":"548.307","OBJECT_TYPE":"PAYLOAD","PERIOD":"95.593","DECAY_DATE":null,"OBJECT_NAME":"STARLINK-2141","SEMIMAJOR_AXIS":"6925.397","INCLINATION":"53.0527","EPHEMERIS_TYPE":"0","MEAN_ANOMALY":"304.1205","CLASSIFICATION_TYPE":"U","NORAD_CAT_ID":"47731","ARG_OF_PERICENTER":"55.9927","MEAN_MOTION_DDOT":"0.0000000000000","TIME_SYSTEM":"UTC","REF_FRAME":"TEME","COUNTRY_CODE":"US","EPOCH":"2022-03-09T21:47:12.484896","PERIAPSIS":"546.216","BSTAR":"0.00018916000000","REV_AT_EPOCH":"5756"},{"RA_OF_ASC_NODE":"205.4337","TLE_LINE1":"1 47732U 21017L   22068.65847522  .00001763  00000-0  13722-3 0  9996","ECCENTRICITY":"0.00011230","FILE":"3352875","ELEMENT_SET_NO":"999","GP_ID":"198360694","CENTER_NAME":"EARTH","MEAN_ELEMENT_THEORY":"SGP4","OBJECT_ID":"2021-017L","RCS_SIZE":"LARGE","MEAN_MOTION":"15.06394185","TLE_LINE2":"2 47732  53.0556 205.4337 0001123 101.8400 258.2715 15.06394185 58717","SITE":"AFETR","MEAN_MOTION_DOT":"0.00001763","OBJECT_NAME":"STARLINK-2142","DECAY_DATE":null,"PERIOD":"95.593","LAUNCH_DATE":"2021-03-04","OBJECT_TYPE":"PAYLOAD","APOAPSIS":"548.009","INCLINATION":"53.0556","EPHEMERIS_TYPE":"0","MEAN_ANOMALY":"258.2715","SEMIMAJOR_AXIS":"6925.366","NORAD_CAT_ID":"47732","ARG_OF_PERICENTER":"101.8400","CLASSIFICATION_TYPE":"U","PERIAPSIS":"546.454","BSTAR":"0.00013722000000","REV_AT_EPOCH":"5871","MEAN_MOTION_DDOT":"0.0000000000000","TIME_SYSTEM":"UTC","COUNTRY_CODE":"US","EPOCH":"2022-03-09T15:48:12.259008","REF_FRAME":"TEME"},{"MEAN_MOTION_DOT":"-0.00000499","SITE":"AFETR","TLE_LINE2":"2 47733  53.0522 299.3742 0001764  55.7473 304.3682 15.06390999 57467","MEAN_MOTION":"15.06390999","RCS_SIZE":"LARGE","OBJECT_ID":"2021-017M","GP_ID":"198360945","MEAN_ELEMENT_THEORY":"SGP4","CENTER_NAME":"EARTH","ELEMENT_SET_NO":"999","FILE":"3352875","ECCENTRICITY":"0.00017640","TLE_LINE1":"1 47733U 21017M   22068.89578706 -.00000499  00000-0 -14588-4 0  9997","RA_OF_ASC_NODE":"299.3742","COUNTRY_CODE":"US","EPOCH":"2022-03-09T21:29:56.001984","REF_FRAME":"TEME","TIME_SYSTEM":"UTC","MEAN_MOTION_DDOT":"0.0000000000000","REV_AT_EPOCH":"5746","BSTAR":"-0.00001458800000","PERIAPSIS":"546.020","CLASSIFICATION_TYPE":"U","ARG_OF_PERICENTER":"55.7473","NORAD_CAT_ID":"47733","SEMIMAJOR_AXIS":"6925.376","MEAN_ANOMALY":"304.3682","INCLINATION":"53.0522","EPHEMERIS_TYPE":"0","APOAPSIS":"548.463","OBJECT_TYPE":"PAYLOAD","LAUNCH_DATE":"2021-03-04","DECAY_DATE":null,"PERIOD":"95.593","OBJECT_NAME":"STARLINK-2143"},{"MEAN_MOTION":"15.06383193","TLE_LINE2":"2 47734  53.0539 289.2999 0001657  65.2759 294.8403 15.06383193 57576","SITE":"AFETR","MEAN_MOTION_DOT":"0.00002608","ECCENTRICITY":"0.00016570","TLE_LINE1":"1 47734U 21017N   22068.91514541  .00002608  00000-0  19397-3 0  9992","RA_OF_ASC_NODE":"289.2999","FILE":"3352875","ELEMENT_SET_NO":"999","OBJECT_ID":"2021-017N","GP_ID":"198359693","MEAN_ELEMENT_THEORY":"SGP4","CENTER_NAME":"EARTH","RCS_SIZE":"LARGE","NORAD_CAT_ID":"47734","ARG_OF_PERICENTER":"65.2759","CLASSIFICATION_TYPE":"U","PERIAPSIS":"546.118","REV_AT_EPOCH":"5757","BSTAR":"0.00019397000000","TIME_SYSTEM":"UTC","MEAN_MOTION_DDOT":"0.0000000000000","COUNTRY_CODE":"US","EPOCH":"2022-03-09T21:57:48.563424","REF_FRAME":"TEME","OBJECT_NAME":"STARLINK-2144","DECAY_DATE":null,"PERIOD":"95.593","LAUNCH_DATE":"2021-03-04","APOAPSIS":"548.413","OBJECT_TYPE":"PAYLOAD","MEAN_ANOMALY":"294.8403","EPHEMERIS_TYPE":"0","INCLINATION":"53.0539","SEMIMAJOR_AXIS":"6925.400"},{"SITE":"AFETR","MEAN_MOTION_DOT":"0.00000560","MEAN_MOTION":"15.06390970","TLE_LINE2":"2 47735  53.0545 214.5734 0001402  66.7542 293.3594 15.06390970 58595","GP_ID":"198359943","CENTER_NAME":"EARTH","MEAN_ELEMENT_THEORY":"SGP4","OBJECT_ID":"2021-017P","RCS_SIZE":"LARGE","FILE":"3352875","RA_OF_ASC_NODE":"214.5734","ECCENTRICITY":"0.00014020","TLE_LINE1":"1 47735U 21017P   22068.84923158  .00000560  00000-0  56486-4 0  9999","ELEMENT_SET_NO":"999","BSTAR":"0.00005648600000","REV_AT_EPOCH":"5859","PERIAPSIS":"546.270","REF_FRAME":"TEME","COUNTRY_CODE":"US","EPOCH":"2022-03-09T20:22:53.608512","MEAN_MOTION_DDOT":"0.0000000000000","TIME_SYSTEM":"UTC","ARG_OF_PERICENTER":"66.7542","NORAD_CAT_ID":"47735","CLASSIFICATION_TYPE":"U","INCLINATION":"53.0545","EPHEMERIS_TYPE":"0","MEAN_ANOMALY":"293.3594","SEMIMAJOR_AXIS":"6925.376","OBJECT_NAME":"STARLINK-2146","DECAY_DATE":null,"PERIOD":"95.593","OBJECT_TYPE":"PAYLOAD","APOAPSIS":"548.212","LAUNCH_DATE":"2021-03-04"},{"OBJECT_TYPE":"PAYLOAD","APOAPSIS":"548.449","LAUNCH_DATE":"2021-03-04","OBJECT_NAME":"STARLINK-2147","DECAY_DATE":null,"PERIOD":"95.593","SEMIMAJOR_AXIS":"6925.389","INCLINATION":"53.0553","EPHEMERIS_TYPE":"0","MEAN_ANOMALY":"297.3232","CLASSIFICATION_TYPE":"U","ARG_OF_PERICENTER":"62.7933","NORAD_CAT_ID":"47736","EPOCH":"2022-03-09T21:11:22.529760","COUNTRY_CODE":"US","REF_FRAME":"TEME","MEAN_MOTION_DDOT":"0.0000000000000","TIME_SYSTEM":"UTC","BSTAR":"0.00010110000000","REV_AT_EPOCH":"5774","PERIAPSIS":"546.060","ELEMENT_SET_NO":"999","FILE":"3352875","RA_OF_ASC_NODE":"279.4444","ECCENTRICITY":"0.00017250","TLE_LINE1":"1 47736U 21017Q   22068.88289965  .00001224  00000-0  10110-3 0  9996","RCS_SIZE":"LARGE","CENTER_NAME":"EARTH","GP_ID":"198360194","MEAN_ELEMENT_THEORY":"SGP4","OBJECT_ID":"2021-017Q","TLE_LINE2":"2 47736  53.0553 279.4444 0001725  62.7933 297.3232 15.06386643 57742","MEAN_MOTION":"15.06386643","MEAN_MOTION_DOT":"0.00001224","SITE":"AFETR"},{"SEMIMAJOR_AXIS":"6856.737","EPHEMERIS_TYPE":"0","INCLINATION":"53.0484","MEAN_ANOMALY":"299.3177","OBJECT_TYPE":"PAYLOAD","APOAPSIS":"479.544","LAUNCH_DATE":"2021-03-04","PERIOD":"94.175","DECAY_DATE":null,"OBJECT_NAME":"STARLINK-2148","EPOCH":"2022-03-09T14:57:17.344224","COUNTRY_CODE":"US","REF_FRAME":"TEME","MEAN_MOTION_DDOT":"0.0000000000000","TIME_SYSTEM":"UTC","BSTAR":"0.01361500000000","REV_AT_EPOCH":"5864","PERIAPSIS":"477.660","CLASSIFICATION_TYPE":"U","ARG_OF_PERICENTER":"60.7959","NORAD_CAT_ID":"47737","RCS_SIZE":"LARGE","GP_ID":"198360445","CENTER_NAME":"EARTH","MEAN_ELEMENT_THEORY":"SGP4","OBJECT_ID":"2021-017R","ELEMENT_SET_NO":"999","FILE":"3352875","RA_OF_ASC_NODE":"213.3945","ECCENTRICITY":"0.00013740","TLE_LINE1":"1 47737U 21017R   22068.62311741  .00411423  00000-0  13615-1 0  9994","MEAN_MOTION_DOT":"0.00411423","SITE":"AFETR","TLE_LINE2":"2 47737  53.0484 213.3945 0001374  60.7959 299.3177 15.29067098 58640","MEAN_MOTION":"15.29067098"},{"MEAN_ANOMALY":"283.3737","EPHEMERIS_TYPE":"0","INCLINATION":"53.0546","SEMIMAJOR_AXIS":"6925.385","PERIOD":"95.593","DECAY_DATE":null,"OBJECT_NAME":"STARLINK-2149","LAUNCH_DATE":"2021-03-04","APOAPSIS":"548.080","OBJECT_TYPE":"PAYLOAD","PERIAPSIS":"546.420","REV_AT_EPOCH":"5774","BSTAR":"0.00017559000000","TIME_SYSTEM":"UTC","MEAN_MOTION_DDOT":"0.0000000000000","EPOCH":"2022-03-09T21:32:35.673504","COUNTRY_CODE":"US","REF_FRAME":"TEME","NORAD_CAT_ID":"47738","ARG_OF_PERICENTER":"76.7386","CLASSIFICATION_TYPE":"U","OBJECT_ID":"2021-017S","GP_ID":"198359193","MEAN_ELEMENT_THEORY":"SGP4","CENTER_NAME":"EARTH","RCS_SIZE":"LARGE","TLE_LINE1":"1 47738U 21017S   22068.89763511  .00002334  00000-0  17559-3 0  9990","ECCENTRICITY":"0.00011980","RA_OF_ASC_NODE":"279.3775","FILE":"3352875","ELEMENT_SET_NO":"999","SITE":"AFETR","MEAN_MOTION_DOT":"0.00002334","MEAN_MOTION":"15.06388074","TLE_LINE2":"2 47738  53.0546 279.3775 0001198  76.7386 283.3737 15.06388074 57748"},{"RCS_SIZE":"LARGE","GP_ID":"198359443","CENTER_NAME":"EARTH","MEAN_ELEMENT_THEORY":"SGP4","OBJECT_ID":"2021-017T","ELEMENT_SET_NO":"999","FILE":"3352875","RA_OF_ASC_NODE":"304.1615","ECCENTRICITY":"0.00013830","TLE_LINE1":"1 47739U 21017T   22068.94508178  .00004807  00000-0  34142-3 0  9997","MEAN_MOTION_DOT":"0.00004807","SITE":"AFETR","TLE_LINE2":"2 47739  53.0553 304.1615 0001383  57.3824 302.7299 15.06394997 57408","MEAN_MOTION":"15.06394997","SEMIMAJOR_AXIS":"6925.364","INCLINATION":"53.0553","EPHEMERIS_TYPE":"0","MEAN_ANOMALY":"302.7299","APOAPSIS":"548.187","OBJECT_TYPE":"PAYLOAD","LAUNCH_DATE":"2021-03-04","PERIOD":"95.592","DECAY_DATE":null,"OBJECT_NAME":"STARLINK-2150","COUNTRY_CODE":"US","EPOCH":"2022-03-09T22:40:55.065792","REF_FRAME":"TEME","MEAN_MOTION_DDOT":"0.0000000000000","TIME_SYSTEM":"UTC","BSTAR":"0.00034142000000","REV_AT_EPOCH":"5740","PERIAPSIS":"546.271","CLASSIFICATION_TYPE":"U","ARG_OF_PERICENTER":"57.3824","NORAD_CAT_ID":"47739"}];
